NORAD_CAT_ID,OBJECT_NAME,OBJECT_TYPE,EPOCH,MEAN_MOTION,ECCENTRICITY,INCLINATION,RA_OF_ASC_NODE,ARG_OF_PERICENTER,MEAN_ANOMALY,BSTAR,MEAN_MOTION_DOT,MEAN_MOTION_DDOT,TLE_LINE0,TLE_LINE1,TLE_LINE2,SEMIMAJOR_AXIS,PERIOD,APOGEE,PERIGEE,DECAYED
51756.0,STARLINK-3513,PAYLOAD,2023-10-12 17:23:23,15.08846375,0.0001558,53.2161,294.9482,89.5753,270.5417,0.00040307,6.134e-05,0.0,0 STARLINK-3513,1 51756U 22016AU  23285.72457766  .00006134  00000-0  40307-3 0  9990,2 51756  53.2161 294.9482 0001558  89.5753 270.5417 15.08846375 91012,6917.861,95.437,540.804,538.648,0.0
51756.0,STARLINK-3513,PAYLOAD,2023-10-13 04:31:05,15.08839111,0.000184,53.2166,292.8691,89.9465,270.1738,0.00011872,1.602e-05,0.0,0 STARLINK-3513,1 51756U 22016AU  23286.18826062  .00001602  00000-0  11872-3 0  9990,2 51756  53.2166 292.8691 0001840  89.9465 270.1738 15.08839111 92152,6917.883,95.438,541.021,538.475,0.0
51756.0,STARLINK-3513,PAYLOAD,2023-10-13 07:41:51,15.08843109,0.0001789,53.2169,292.2756,91.8811,268.2386,0.00018764,2.7e-05,0.0,0 STARLINK-3513,1 51756U 22016AU  23286.32073908  .00002700  00000-0  18764-3 0  9996,2 51756  53.2169 292.2756 0001789  91.8811 268.2386 15.08843109 91103,6917.871,95.437,540.973,538.498,0.0
51756.0,STARLINK-3513,PAYLOAD,2023-10-13 17:14:10,15.08840532,0.0001765,53.2164,290.4916,93.2467,266.8727,0.00011363,1.521e-05,0.0,0 STARLINK-3513,1 51756U 22016AU  23286.71818027  .00001521  00000-0  11363-3 0  9996,2 51756  53.2164 290.4916 0001765  93.2467 266.8727 15.08840532 91169,6917.879,95.438,540.965,538.523,0.0
51756.0,STARLINK-3513,PAYLOAD,2023-10-14 09:08:01,15.08855895,0.0001731,53.216,287.5173,96.6407,263.4782,0.00034736,5.247e-05,0.0,0 STARLINK-3513,1 51756U 22016AU  23287.38057303  .00005247  00000-0  34736-3 0  9990,2 51756  53.2160 287.5173 0001731  96.6407 263.4782 15.08855895 92333,6917.832,95.437,540.894,538.499,0.0
51756.0,STARLINK-3513,PAYLOAD,2023-10-15 04:12:40,15.08823818,0.0001613,53.2159,283.9482,86.6097,273.508,-0.00018587,-3.244e-05,0.0,0 STARLINK-3513,1 51756U 22016AU  23288.17546803 -.00003244  00000-0 -18587-3 0  9999,2 51756  53.2159 283.9482 0001613  86.6097 273.5080 15.08823818 92453,6917.93,95.439,540.911,538.679,0.0
51756.0,STARLINK-3513,PAYLOAD,2023-10-15 08:58:50,15.08827692,0.0001625,53.2159,283.0557,87.2385,272.8793,-9.4647e-05,-1.794e-05,0.0,0 STARLINK-3513,1 51756U 22016AU  23288.37419051 -.00001794  00000-0 -94647-4 0  9995,2 51756  53.2159 283.0557 0001625  87.2385 272.8793 15.08827692 91419,6917.918,95.438,540.907,538.659,0.0
51756.0,STARLINK-3513,PAYLOAD,2023-10-15 16:55:45,15.08834077,0.0001561,53.216,281.5685,88.1469,271.9702,8.9718e-05,1.14e-05,0.0,0 STARLINK-3513,1 51756U 22016AU  23288.70538825  .00001140  00000-0  89718-4 0  9999,2 51756  53.2160 281.5685 0001561  88.1469 271.9702 15.08834077 92537,6917.898,95.438,540.843,538.684,0.0
51756.0,STARLINK-3513,PAYLOAD,2023-10-16 07:14:13,15.08855269,0.0001446,53.2153,278.8912,89.1634,270.9523,0.0010297,0.00016144,0.0,0 STARLINK-3513,1 51756U 22016AU  23289.30154649  .00016144  00000-0  10297-2 0  9998,2 51756  53.2153 278.8912 0001446  89.1634 270.9523 15.08855269 92624,6917.834,95.437,540.699,538.698,0.0
51756.0,STARLINK-3513,PAYLOAD,2023-10-16 08:49:36,15.08862783,0.0001435,53.2152,278.5936,90.0415,270.0742,0.0013021,0.00020509,0.0,0 STARLINK-3513,1 51756U 22016AU  23289.36778556  .00020509  00000-0  13021-2 0  9991,2 51756  53.2152 278.5936 0001435  90.0415 270.0742 15.08862783 91567,6917.811,95.436,540.668,538.683,0.0
51756.0,STARLINK-3513,PAYLOAD,2023-10-17 05:29:37,15.08861712,0.0001665,53.2152,274.7262,105.2847,254.833,0.00073074,0.00011368,0.0,0 STARLINK-3513,1 51756U 22016AU  23290.22890088  .00011368  00000-0  73074-3 0  9991,2 51756  53.2152 274.7262 0001665 105.2847 254.8330 15.08861712 92767,6917.814,95.436,540.831,538.527,0.0
51756.0,STARLINK-3513,PAYLOAD,2023-10-18 02:09:37,15.08846114,0.000144,53.216,270.8611,95.5429,264.5728,0.00088819,0.00013878,0.0,0 STARLINK-3513,1 51756U 22016AU  23291.09002147  .00013878  00000-0  88819-3 0  9999,2 51756  53.2160 270.8611 0001440  95.5429 264.5728 15.08846114 91823,6917.862,95.437,540.723,538.731,0.0
51756.0,STARLINK-3513,PAYLOAD,2023-10-18 05:20:24,15.0884652,0.000139,53.2163,270.2666,93.9381,266.177,0.00098601,0.00015442,0.0,0 STARLINK-3513,1 51756U 22016AU  23291.22250148  .00015442  00000-0  98601-3 0  9999,2 51756  53.2163 270.2666 0001390  93.9381 266.1770 15.08846520 92910,6917.86,95.437,540.687,538.764,0.0
51756.0,STARLINK-3513,PAYLOAD,2023-10-18 22:49:38,15.08851069,0.0001771,53.2174,266.994,94.7565,265.363,0.00084171,0.00013137,0.0,0 STARLINK-3513,1 51756U 22016AU  23291.95114404  .00013137  00000-0  84171-3 0  9999,2 51756  53.2174 266.9940 0001771  94.7565 265.3630 15.08851069 91958,6917.847,95.437,540.937,538.486,0.0
51756.0,STARLINK-3513,PAYLOAD,2023-10-19 05:11:11,15.08852123,0.0001524,53.2168,265.8056,89.5924,270.5243,0.00058345,9.013e-05,0.0,0 STARLINK-3513,1 51756U 22016AU  23292.21610273  .00009013  00000-0  58345-3 0  9996,2 51756  53.2168 265.8056 0001524  89.5924 270.5243 15.08852123 93068,6917.843,95.437,540.763,538.654,0.0
51756.0,STARLINK-3513,PAYLOAD,2023-10-19 08:21:57,15.08856844,0.0001473,53.2169,265.2111,88.0232,272.0929,0.00074681,0.00011623,0.0,0 STARLINK-3513,1 51756U 22016AU  23292.34858150  .00011623  00000-0  74681-3 0  9999,2 51756  53.2169 265.2111 0001473  88.0232 272.0929 15.08856844 92010,6917.829,95.436,540.713,538.675,0.0
51756.0,STARLINK-3513,PAYLOAD,2023-10-19 22:40:25,15.08850675,0.0001564,53.2172,262.5351,85.4488,274.6682,0.00070658,0.00010978,0.0,0 STARLINK-3513,1 51756U 22016AU  23292.94474435  .00010978  00000-0  70658-3 0  9997,2 51756  53.2172 262.5351 0001564  85.4488 274.6682 15.08850675 92105,6917.848,95.437,540.795,538.631,0.0
51756.0,STARLINK-3513,PAYLOAD,2023-10-20 05:01:58,15.08857277,0.0001548,53.2167,261.346,94.655,265.4619,0.0010432,0.00016361,0.0,0 STARLINK-3513,1 51756U 22016AU  23293.20970117  .00016361  00000-0  10432-2 0  9990,2 51756  53.2167 261.3460 0001548  94.6550 265.4619 15.08857277 93217,6917.828,95.436,540.763,538.622,0.0
51756.0,STARLINK-3513,PAYLOAD,2023-10-20 08:12:44,15.08864969,0.0001453,53.2168,260.751,92.1599,267.956,0.0010983,0.00017247,0.0,0 STARLINK-3513,1 51756U 22016AU  23293.34217876  .00017247  00000-0  10983-2 0  9996,2 51756  53.2168 260.7510 0001453  92.1599 267.9560 15.08864969 92169,6917.804,95.436,540.674,538.664,0.0
51756.0,STARLINK-3513,PAYLOAD,2023-10-20 20:55:50,15.08831663,0.0001491,53.2171,258.3729,98.9597,261.1564,0.00064735,0.00010027,0.0,0 STARLINK-3513,1 51756U 22016AU  23293.87210702  .00010027  00000-0  64735-3 0  9999,2 51756  53.2171 258.3729 0001491  98.9597 261.1564 15.08831663 93315,6917.906,95.438,540.802,538.739,0.0
51756.0,STARLINK-3513,PAYLOAD,2023-10-21 06:28:09,15.08816868,0.0001921,53.217,256.5883,87.606,272.5152,-8.7204e-05,-1.675e-05,0.0,0 STARLINK-3513,1 51756U 22016AU  23294.26955469 -.00001675  00000-0 -87204-4 0  9997,2 51756  53.2170 256.5883 0001921  87.6060 272.5152 15.08816868 93378,6917.951,95.439,541.145,538.487,0.0
51756.0,STARLINK-3513,PAYLOAD,2023-10-21 20:46:37,15.08849819,0.0001308,53.2164,253.9131,91.2208,268.8934,0.0010319,0.00016177,0.0,0 STARLINK-3513,1 51756U 22016AU  23294.86570957  .00016177  00000-0  10319-2 0  9990,2 51756  53.2164 253.9131 0001308  91.2208 268.8934 15.08849819 93460,6917.85,95.437,540.62,538.811,0.0
51756.0,STARLINK-3513,PAYLOAD,2023-10-22 06:18:55,15.08872336,0.0001536,53.2169,252.129,83.3783,276.7384,0.001002,0.00015709,0.0,0 STARLINK-3513,1 51756U 22016AU  23295.26314236  .00015709  00000-0  10020-2 0  9990,2 51756  53.2169 252.1290 0001536  83.3783 276.7384 15.08872336 92450,6917.782,95.436,540.709,538.584,0.0
51756.0,STARLINK-3513,PAYLOAD,2023-10-22 14:15:51,15.08847665,0.0001557,53.2163,250.6421,97.5665,262.5504,6.6844e-05,7.76e-06,0.0,0 STARLINK-3513,1 51756U 22016AU  23295.59434455  .00000776  00000-0  66844-4 0  9997,2 51756  53.2163 250.6421 0001557  97.5665 262.5504 15.08847665 93570,6917.857,95.437,540.799,538.645,0.0
51756.0,STARLINK-3513,PAYLOAD,2023-10-23 04:34:20,15.08827232,0.0001432,53.2161,247.9656,106.9054,253.2096,0.0010923,0.00017133,0.0,0 STARLINK-3513,1 51756U 22016AU  23296.19051172  .00017133  00000-0  10923-2 0  9995,2 51756  53.2161 247.9656 0001432 106.9054 253.2096 15.08827232 93667,6917.919,95.438,540.775,538.794,0.0
51756.0,STARLINK-3513,PAYLOAD,2023-10-23 14:06:39,15.08832041,0.0001449,53.2157,246.1812,107.3179,252.7972,0.0008861,0.00013839,0.0,0 STARLINK-3513,1 51756U 22016AU  23296.58795519  .00013839  00000-0  88610-3 0  9996,2 51756  53.2157 246.1812 0001449 107.3179 252.7972 15.08832041 92657,6917.905,95.438,540.772,538.767,0.0
51756.0,STARLINK-3513,PAYLOAD,2023-10-24 04:25:07,15.08851608,0.0001401,53.2157,243.5042,109.7762,250.3382,0.00097238,0.00015226,0.0,0 STARLINK-3513,1 51756U 22016AU  23297.18411316  .00015226  00000-0  97238-3 0  9991,2 51756  53.2157 243.5042 0001401 109.7762 250.3382 15.08851608 93813,6917.845,95.437,540.679,538.741,0.0
51756.0,STARLINK-3513,PAYLOAD,2023-10-24 13:57:26,15.08846015,0.0001533,53.2165,241.7174,115.7791,244.3359,0.00048553,7.449e-05,0.0,0 STARLINK-3513,1 51756U 22016AU  23297.58155451  .00007449  00000-0  48553-3 0  9994,2 51756  53.2165 241.7174 0001533 115.7791 244.3359 15.08846015 92804,6917.862,95.437,540.788,538.666,0.0
51756.0,STARLINK-3513,PAYLOAD,2023-10-25 05:51:17,15.08850523,0.0001505,53.2154,238.7453,107.7158,252.3998,0.0005049,7.759e-05,0.0,0 STARLINK-3513,1 51756U 22016AU  23298.24395244  .00007759  00000-0  50490-3 0  9991,2 51756  53.2154 238.7453 0001505 107.7158 252.3998 15.08850523 93971,6917.848,95.437,540.754,538.672,0.0
51756.0,STARLINK-3513,PAYLOAD,2023-10-26 02:31:18,15.08849004,0.0001366,53.2164,234.8804,99.5225,260.5921,0.00048781,7.486e-05,0.0,0 STARLINK-3513,1 51756U 22016AU  23299.10507413  .00007486  00000-0  48781-3 0  9997,2 51756  53.2164 234.8804 0001366  99.5225 260.5921 15.08849004 94102,6917.853,95.437,540.663,538.773,0.0
